C/2018 B1 (Lemmon),h,03/29.6273/2018,162.4201,133.1907,68.3087,1.001226,5.115558,2000,9.0,4.0
# From MPC114601
P/2018 C1 (Lemmon-Read),e,5.1258,270.3895,235.6363,5.653255,0.0733257,0.53379828,70.7127,10/18.0/2020,2000,g 13.5,4.0
# From MPC114601
C/2018 C2 (Lemmon),h,06/01.8242/2018,34.4590,91.1437,134.1141,1.000854,1.957715,2000,13.0,4.0
# From MPEC 2020-AA5
C/2018 DO4 (Lemmon),e,160.4742,251.1343,175.9728,25.74870,0.0075435,0.90654382,3.2185,10/18.0/2020,2000,g 11.0,4.0
# From MPC114602
C/2018 E1 (ATLAS),e,72.5112,146.8597,299.4125,53.98644,0.0024847,0.94993342,2.2728,10/18.0/2020,2000,g 10.5,4.0
# From MPC114602
C/2018 E2 (Barros),e,97.7173,67.1977,277.4730,3928,0.0000040,0.99900193,0.0000,12/23.9868/2017,2000,g 10.5,4.0
# From MPC114602
C/2018 EN4 (NEOWISE),e,81.6254,136.1462,35.0076,18.24699,0.0126449,0.92054734,10.9232,10/18.0/2020,2000,g 15.0,4.0
# From MPC114602
C/2018 EF9 (Lemmon),e,84.6475,172.5692,72.6205,566.8427,0.0000730,0.99725246,0.0000,05/22.8982/2018,2000,g 18.0,2.0
# From MPC115883
C/2018 F1 (Grauer),e,46.0760,177.2761,71.6373,290.4841,0.0001991,0.98969310,0.0000,12/13.8793/2018,2000,g 11.5,4.0
# From MPC110084
C/2018 F3 (Johnson),p,08/15.2314/2017,105.5348,293.0113,2.483172,173.0311,2000,13.0,4.0
# From MPC119996
C/2018 F4 (PANSTARRS),h,12/04.1464/2019,78.0954,26.5120,263.2259,1.001406,3.440120,2000,11.9,2.0
# From MPC114602
P/2018 H2 (PANSTARRS),e,7.3880,68.4171,119.9937,4.394463,0.1069905,0.53992703,106.9159,10/18.0/2020,2000,g 16.6,2.0
# From MPC114602
C/2018 K1 (Weiland),e,164.1960,260.0310,325.0531,29.92714,0.0060201,0.93713778,5.5700,10/18.0/2020,2000,g 14.9,4.0
# From MPC118094
C/2018 KJ3 (Lemmon),e,136.7090,91.5979,217.6534,797.7786,0.0000437,0.99545092,0.0000,09/09.6403/2019,2000,g 12.2,2.0
# From MPC114602
P/2018 L1 (PANSTARRS),e,10.5934,268.6298,17.9696,3.650299,0.1413225,0.48294207,99.6858,10/18.0/2020,2000,g 15.0,4.0
# From MPC118841
C/2018 L2 (ATLAS),e,67.3979,243.0237,56.2670,257.7642,0.0002382,0.99335618,0.0000,12/02.6716/2018,2000,g 10.0,4.0
# From MPC114603
P/2018 L4 (PANSTARRS),e,26.6241,145.1604,140.5444,4.939774,0.0897725,0.66023358,72.6351,10/18.0/2020,2000,g 17.5,4.0
# From MPC119996
P/2018 L5 (Leonard),e,2.2083,219.1347,93.7799,3.627557,0.1426536,0.36479020,127.9588,10/18.0/2020,2000,g 14.5,4.0
# From MPC117070
C/2018 M1 (Catalina),e,37.2854,339.4215,14.1567,21.33809,0.0099993,0.93895668,8.3072,10/18.0/2020,2000,g 15.5,4.0
# From MPC112393
C/2018 N1 (NEOWISE),e,159.4450,292.4430,354.6092,344.4443,0.0001542,0.99619862,0.0000,08/01.9213/2018,2000,g 15.5,4.0
# From MPC119996
C/2018 N2 (ASASSN),h,11/10.9686/2019,77.5280,25.2496,24.4011,1.000115,3.124725,2000,6.0,4.0
# From MPC114603
C/2018 O1 (ATLAS),e,154.0406,87.6373,162.5628,27.87022,0.0066987,0.94402642,5.2146,10/18.0/2020,2000,g 17.0,4.0
# From MPC114603
P/2018 P3 (PANSTARRS),e,8.9086,59.1901,305.8690,3.006465,0.1890688,0.41635842,139.7843,10/18.0/2020,2000,g 14.5,4.0
# From MPC114603
P/2018 P4 (PANSTARRS),e,23.1066,353.0809,8.1965,6.670093,0.0572145,0.45030686,40.6335,10/18.0/2020,2000,g 12.0,4.0
# From MPC118094
C/2018 P5 (PANSTARRS),e,7.2537,216.2437,131.7045,12.79044,0.0215465,0.64215788,12.9092,10/18.0/2020,2000,g 11.0,4.0
# From MPC118841
C/2018 R3 (Lemmon),e,69.7260,324.6350,112.8460,1723,0.0000138,0.99925149,0.0000,06/07.2100/2019,2000,g  9.5,4.0
# From MPC112393
C/2018 R4 (Fuls),e,11.6837,298.4356,345.2623,326.7320,0.0001669,0.99475762,0.0000,03/03.6709/2018,2000,g 14.0,4.0
# From MPC114603
C/2018 R5 (Lemmon),e,103.7483,171.1327,178.0413,22.78716,0.0090608,0.84102606,5.8623,10/18.0/2020,2000,g 11.5,4.0
# From MPC119996
C/2018 U1 (Lemmon),h,11/02.7930/2021,108.3007,75.4779,180.4246,1.000959,4.993574,2000,5.0,4.0
# From MPC114604
C/2018 V1 (Machholz-Fujikawa-Iwamoto),h,12/03.3781/2018,144.0538,128.8790,88.8360,1.000371,0.385910,2000,12.0,4.0
# From MPC115884
C/2018 V2 (ATLAS),e,159.1620,357.0391,318.9529,25.28576,0.0077516,0.90197322,5.3593,10/18.0/2020,2000,g 15.0,4.0
# From MPC114604
P/2018 VN2 (Leonard),e,18.2478,226.5228,138.7328,4.064837,0.1202650,0.47836075,104.0833,10/18.0/2020,2000,g 15.0,4.0
# From MPC117070
A/2018 V3,e,164.9780,308.6568,3.5076,121.1399,0.0007392,0.98893928,0.0000,09/08.6783/2019,2000,g 15.7,2.0
# From MPC114604
C/2018 V4 (Africano),e,69.0030,78.3715,359.9544,207.5599,0.0003296,0.98459358,0.0000,03/01.4634/2019,2000,g 12.5,4.0
# From MPC114604
P/2018 V5 (Trujillo-Sheppard),e,10.5841,171.2920,260.7134,8.954595,0.0367820,0.47454993,27.4430,10/18.0/2020,2000,g 12.5,4.0
# From MPC115884
C/2018 W1 (Catalina),e,83.2599,233.5917,251.2527,21.73711,0.0097253,0.93740732,5.1080,10/18.0/2020,2000,g 15.7,2.0
# From MPC119996
C/2018 W2 (Africano),h,09/05.6848/2019,116.6169,181.8537,157.9755,1.000504,1.454878,2000,9.5,4.0
# From MPC119996
C/2018 X2 (Fitzsimmons),e,23.0694,340.8272,162.0603,149.1011,0.0005414,0.98573849,0.0000,07/08.4836/2019,2000,g 12.0,4.0
# From MPC114604
C/2018 X3 (PANSTARRS),e,43.3698,78.9134,359.7693,12.38324,0.0226179,0.78219615,14.8693,10/18.0/2020,2000,g 14.5,4.0
# From MPC118842
C/2018 Y1 (Iwamoto),e,160.4006,147.5080,358.0335,142.2322,0.0005810,0.99096144,0.0000,02/07.0301/2019,2000,g 11.5,4.0
# From MPC114605
P/2018 Y2 (Africano),e,11.6828,297.2669,162.3845,7.464370,0.0483297,0.47866850,31.6615,10/18.0/2020,2000,g 11.5,4.0
# From MPC114605
P/2019 A1 (PANSTARRS),e,13.7442,312.3025,150.8056,5.124089,0.0849726,0.56838364,62.7290,10/18.0/2020,2000,g 16.0,4.0
# From MPC114605
P/2019 A2 (ATLAS),e,14.8604,139.4673,324.0988,5.724354,0.0719639,0.38137533,50.1787,10/18.0/2020,2000,g 10.5,4.0
# From MPC114605
P/2019 A3 (PANSTARRS),e,15.3660,31.3070,325.4845,3.147104,0.1765377,0.26543368,142.6262,10/18.0/2020,2000,g 16.0,4.0
# From MPC114605
P/2019 A4 (PANSTARRS),e,13.3209,119.2990,341.7264,2.613723,0.2332463,0.08894363,159.4298,10/18.0/2020,2000,g 15.0,4.0
# From MPC118842
C/2019 A5 (PANSTARRS),e,67.5557,146.6246,355.9915,21.60047,0.0098177,0.70725972,4.8809,10/18.0/2020,2000,g  9.5,4.0
# From MPC114605
P/2019 A6 (Lemmon-PANSTARRS),e,33.2298,280.2709,156.2265,5.364104,0.0793338,0.63893373,61.9485,10/18.0/2020,2000,g 16.0,4.0
# From MPC114605
P/2019 A7 (PANSTARRS),e,17.7745,280.5232,119.2852,3.185819,0.1733295,0.16106641,175.8906,10/18.0/2020,2000,g 13.5,4.0
# From MPC115884
P/2019 A8 (PANSTARRS),e,3.0405,127.5658,22.2210,3.362828,0.1598259,0.44835134,122.7031,10/18.0/2020,2000,g 16.0,4.0
# From MPC118842
C/2019 A9 (PANSTARRS),e,84.2349,278.3845,237.9611,39.98891,0.0038976,0.96423279,1.7515,10/18.0/2020,2000,g 15.0,4.0
# From MPC114606
C/2019 B1 (Africano),e,123.3636,290.4356,174.8513,147.5859,0.0005497,0.98918141,0.0000,03/19.8194/2019,2000,g 16.0,4.0
# From MPC115885
P/2019 B2 (Groeller),e,16.8292,176.3636,359.0516,3.860073,0.1299603,0.37325249,64.6137,10/18.0/2020,2000,g 14.5,4.0
# From MPC115885
C/2019 B3 (PANSTARRS),h,01/19.8772/2021,66.5383,358.4270,263.8964,1.002619,6.823659,2000,5.5,4.0
# From MPEC 2020-AA5
C/2019 C1,e,36.0220,212.3907,319.1928,775.8923,0.0000456,0.99151794,0.0000,05/05.6850/2020,2000,g 10.0,4.0
# From MPC118842
C/2019 D1 (Flewelling),e,34.0862,231.7185,70.5119,140.8462,0.0005896,0.98879315,0.0000,05/11.8765/2019,2000,g 13.0,4.0
# From MPC119997
C/2019 E3 (ATLAS),h,11/12.2929/2023,84.2892,347.2368,280.6037,1.004271,10.315242,2000,2.5,4.0
# From MPC119997
C/2019 F1 (ATLAS-Africano),h,06/22.7689/2021,54.1758,38.7263,251.1141,1.003574,3.595778,2000,5.5,4.0
# From MPC119997
C/2019 F2 (ATLAS),e,19.1908,175.7715,11.1504,16.68910,0.0144562,0.86607535,5.8528,10/18.0/2020,2000,g 12.0,4.0
# From MPEC 2020-AA5
A/2019 G2,e,159.2090,208.1505,82.6417,689.8973,0.0000544,0.99667916,0.0000,12/10.0200/2019,2000,g 16.5,2.0
# From MPC118094
A/2019 G4,h,09/15.9637/2018,138.3860,130.4643,287.8840,1.001313,5.858612,2000,13.0,2.0
# From MPC114607
P/2019 GG21 (PANSTARRS),e,6.0837,340.5847,208.4528,7.470914,0.0482662,0.47299595,25.4059,10/18.0/2020,2000,g 12.0,4.0
# From MPC115885
C/2019 H1 (NEOWISE),e,104.5746,269.1916,19.3125,232.8645,0.0002774,0.99207425,0.0000,04/27.7802/2019,2000,g 15.5,4.0
# From MPC118842
C/2019 J1 (Lemmon),e,24.5505,98.0894,167.7832,69.84977,0.0016883,0.96450709,0.9418,10/18.0/2020,2000,g 12.0,4.0
# From MPC115885
C/2019 J2 (Palomar),e,105.1452,25.4756,98.7126,675.0805,0.0000562,0.99744150,0.0000,07/19.7074/2019,2000,g 13.0,4.0
# From MPC117071
C/2019 J3 (ATLAS),h,08/01.9261/2019,131.4129,270.5220,16.5721,1.000141,2.374034,2000,13.5,4.0
# From MPC117071
C/2019 JU6 (ATLAS),e,148.2999,21.7398,94.8921,333.7987,0.0001616,0.99387182,0.0000,05/31.8792/2019,2000,g 14.5,4.0
# From MPC119997
C/2019 K1 (ATLAS),e,87.1457,73.3770,265.7117,228817,0.0000000,0.99999120,0.0000,02/12.9791/2020,2000,g 10.0,4.0
# From MPC119997
C/2019 K4 (Ye),e,105.3027,180.1639,139.7745,1659,0.0000146,0.99863811,0.0000,06/16.3509/2019,2000,g 12.5,4.0
# From MPC119997
C/2019 K5 (Young),e,15.3147,177.1686,174.9560,156.5164,0.0005033,0.98699605,0.0000,06/22.8334/2019,2000,g 13.0,4.0
# From MPC117071
A/2019 K6,e,132.3761,42.9414,187.6245,1610,0.0000153,0.99755919,0.0000,05/20.2192/2020,2000,g 13.6,2.0
# From MPC118095
C/2019 K7 (Smith),h,06/16.9641/2020,103.5397,307.9295,27.3045,1.000212,4.474993,2000,6.2,4.0
# From MPC119997
C/2019 K8 (ATLAS),e,93.2223,291.0447,85.3705,2103,0.0000102,0.99848090,0.0000,07/21.3478/2019,2000,g 11.5,4.0
# From MPC118095
C/2019 L1 (PANSTARRS),e,9.9930,254.4105,49.9469,9.834758,0.0319565,0.70605094,13.8580,10/18.0/2020,2000,g 13.5,4.0
# From MPC115886
C/2019 L2 (NEOWISE),e,152.1803,12.5845,18.7434,24.86054,0.0079513,0.93483720,4.4938,10/18.0/2020,2000,g 16.0,4.0
# From MPC119997
C/2019 L3 (ATLAS),h,01/09.7361/2022,48.3662,290.7849,171.6412,1.000834,3.553845,2000,4.5,4.0
# From MPC118095
C/2019 LB7 (Kleyna),e,164.2881,3.8317,336.4768,35.10906,0.0047378,0.92922394,2.7043,10/18.0/2020,2000,g 17.0,4.0
# From MPC118843
P/2019 M2 (ATLAS),e,12.2821,307.5967,332.5589,3.026423,0.1872016,0.64839288,90.4825,10/18.0/2020,2000,g 21.2,4.0
# From MPC118095
C/2019 M3 (ATLAS),h,01/02.8369/2019,99.4557,154.8982,87.9378,1.001533,2.418812,2000,12.2,4.0
# From MPC119997
